{
    "CCSDS_OMM_VERS": "3.0",
    "COMMENT": "GENERATED VIA SPACE-TRACK.ORG API",
    "CREATION_DATE": "2025-11-23T22:56:29",
    "ORIGINATOR": "18 SPCS",
    "OBJECT_NAME": "GALILEO 16 (26C)",
    "OBJECT_ID": "2016-069B",
    "CENTER_NAME": "EARTH",
    "REF_FRAME": "TEME",
    "TIME_SYSTEM": "UTC",
    "MEAN_ELEMENT_THEORY": "SGP4",
    "EPOCH": "2025-11-23T07:04:40.569600",
    "MEAN_MOTION": "1.70474566",
    "ECCENTRICITY": "0.00023820",
    "INCLINATION": "55.3681",
    "RA_OF_ASC_NODE": "106.7842",
    "ARG_OF_PERICENTER": "38.5768",
    "MEAN_ANOMALY": "321.4050",
    "EPHEMERIS_TYPE": "0",
    "CLASSIFICATION_TYPE": "U",
    "NORAD_CAT_ID": "41860",
    "ELEMENT_SET_NO": "999",
    "REV_AT_EPOCH": "5614",
    "BSTAR": "0.00000000000000",
    "MEAN_MOTION_DOT": "0.00000036",
    "MEAN_MOTION_DDOT": "0.0000000000000",
    "SEMIMAJOR_AXIS": "29600.255",
    "PERIOD": "844.701",
    "APOAPSIS": "23229.170",
    "PERIAPSIS": "23215.069",
    "OBJECT_TYPE": "PAYLOAD",
    "RCS_SIZE": "LARGE",
    "COUNTRY_CODE": "ESA",
    "LAUNCH_DATE": "2016-11-17",
    "SITE": "FRGUI",
    "DECAY_DATE": null,
    "FILE": "4896310",
    "GP_ID": "303350765",
    "TLE_LINE0": "0 GALILEO 16 (26C)",
    "TLE_LINE1": "1 41860U 16069B   25327.29491400  .00000036  00000-0  00000+0 0  9997",
    "TLE_LINE2": "2 41860  55.3681 106.7842 0002382  38.5768 321.4050  1.70474566 56140"
}